{"distinct": [{"__class__": "tuple", "__value__": [{"store_name": "hy-vee food store #4 / cedar rapids", "address": "1556 first avenue ne", "zip_code": "52402"}, {"store_name": "hy-vee food store #5 / cedar rapids", "address": "3235 oakland road ne", "zip_code": "52402"}]}, {"__class__": "tuple", "__value__": [{"store_name": "hy-vee food store #2 / cedar rapids", "address": "279 collins road ne", "zip_code": "52402"}, {"store_name": "hy-vee food store #5 / cedar rapids", "address": "3235 oakland road ne", "zip_code": "52402"}]}, {"__class__": "tuple", "__value__": [{"store_name": "hy-vee food store #2 / cedar rapids", "address": "279 collins road ne", "zip_code": "52402"}, {"store_name": "hy-vee food store #5 / cedar rapids", "address": "3235 oakland road ne", "zip_code": "52402"}]}, {"__class__": "tuple", "__value__": [{"store_name": "prime mart / cedar falls", "address": "2323 main st", "zip_code": "50613"}, {"store_name": "prime mart - cedar falls", "address": "2728 center st", "zip_code": "50613"}]}, {"__class__": "tuple", "__value__": [{"store_name": "pony creek liquor / glenwood", "address": "411 s locust st", "zip_code": "51534"}, {"store_name": "pony creek liquor / glenwood", "address": "924 s. locust st", "zip_code": "51534"}]}], "match": [{"__class__": "tuple", "__value__": [{"store_name": "hy-vee #3 / bdi / des moines", "address": "3221 se 14th st", "zip_code": "50320"}, {"store_name": "hy-vee food store #3 / des moines", "address": "3221 se 14th st", "zip_code": "50315"}]}, {"__class__": "tuple", "__value__": [{"store_name": "spirits liquor / grimes", "address": "109 e 1st st. # b", "zip_code": "50111"}, {"store_name": "spirits liquor", "address": "109 e 1st st. # b", "zip_code": "50111"}]}, {"__class__": "tuple", "__value__": [{"store_name": "spirits liquor / grimes", "address": "109 e 1st st. # b", "zip_code": "50111"}, {"store_name": "spirits liquor", "address": "109 e 1st st. # b", "zip_code": "50111"}]}, {"__class__": "tuple", "__value__": [{"store_name": "hy-vee #3 / bdi / des moines", "address": "3221 se 14th st", "zip_code": "50320"}, {"store_name": "hy-vee food store #3 / des moines", "address": "3221 se 14th st", "zip_code": "50315"}]}, {"__class__": "tuple", "__value__": [{"store_name": "hy-vee #3 / bdi / des moines", "address": "3221 se 14th st", "zip_code": "50320"}, {"store_name": "hy-vee food store #3 / des moines", "address": "3221 se 14th st", "zip_code": "50315"}]}]}